     2.100          NAVIGATION                              RINEX VERSION / TYPE
fic2rin                                 12/02/2010 00:34:38 PGM / RUN BY / DATE
                                                            END OF HEADER
20 10 12  1 20  0  0.0  .492725521326D-04 -.227373675443D-12  .000000000000D+00
     .580000000000D+02  .115812500000D+03  .517164399116D-08  .170877684361D+01
     .593252480030D-05  .445549900178D-02  .621564686298D-05  .515378613472D+04
     .331200000000D+06 -.115483999252D-06 -.300486475014D+01 -.912696123123D-07
     .935462269438D+00  .243906250000D+03  .125522406953D+01 -.848213902942D-08
     .215008955986D-09  .100000000000D+01  .161200000000D+04  .000000000000D+00
     .240000000000D+01  .000000000000D+00 -.791624188423D-08  .580000000000D+02
     .324006000000D+06  .400000000000D+01
21 10 12  1 20  0  0.0 -.106343533844D-03 -.272848410532D-11  .000000000000D+00
     .470000000000D+02  .410000000000D+02  .496699260946D-08  .254970751335D+01
     .203028321266D-05  .169958953047D-01  .129286199808D-04  .515361585426D+04
     .331200000000D+06 -.819563865662D-07  .227707990387D+01 -.318512320518D-06
     .932009152254D+00  .113531250000D+03 -.242968881882D+01 -.792140138673D-08
    -.214651798252D-09  .100000000000D+01  .161200000000D+04  .000000000000D+00
     .240000000000D+01  .000000000000D+00 -.116415321827D-07  .470000000000D+02
     .324006000000D+06  .400000000000D+01
22 10 12  1 20  0  0.0  .157765578479D-03 -.682121026330D-12  .000000000000D+00
     .950000000000D+02  .112468750000D+03  .544058376501D-08  .441999461932D+00
     .588782131672D-05  .546089373529D-02  .537745654583D-05  .515372418404D+04
     .331200000000D+06 -.149011611938D-07 -.294643326974D+01 -.931322574615D-08
     .933116010702D+00  .261250000000D+03 -.192642640586D+01 -.882751055839D-08
     .194293807403D-09  .100000000000D+01  .161200000000D+04  .000000000000D+00
     .240000000000D+01  .000000000000D+00 -.176951289177D-07  .950000000000D+02
     .324006000000D+06  .400000000000D+01
23 10 12  1 20  0  0.0  .340500380844D-03 -.216004991671D-11  .000000000000D+00
     .230000000000D+02 -.489375000000D+02  .460554898246D-08 -.128423272709D+01
    -.266917049885D-05  .694077799562D-02  .258348882198D-05  .515361653709D+04
     .331200000000D+06  .372529029846D-08 -.191281169878D+01 -.139698386192D-06
     .966072556045D+00  .331812500000D+03  .313143500040D+01 -.837677749783D-08
    -.180007498035D-09  .100000000000D+01  .161200000000D+04  .000000000000D+00
     .240000000000D+01  .000000000000D+00 -.200234353542D-07  .230000000000D+02
     .324006000000D+06  .400000000000D+01
24 10 12  1 20  0  0.0  .343896914274D-03  .341060513165D-11  .000000000000D+00
     .280000000000D+02  .329062500000D+02  .467555189836D-08 -.170590130404D+01
     .160187482834D-05  .582319381647D-02  .120550394058D-04  .515474115753D+04
     .331200000000D+06 -.633299350739D-07  .231888486826D+01 -.968575477600D-07
     .948658086023D+00  .142250000000D+03 -.297376722111D+00 -.801711965950D-08
    -.145363197818D-09  .100000000000D+01  .161200000000D+04  .000000000000D+00
     .240000000000D+01  .000000000000D+00 -.139698386192D-08  .280000000000D+02
     .324006000000D+06  .400000000000D+01
25 10 12  1 20  0  0.0 -.551566481590D-04 -.238742359215D-11  .000000000000D+00
     .720000000000D+02  .154375000000D+02  .459769151231D-08  .638264857196D+00
     .784173607826D-06  .569180003367D-03  .786967575550D-05  .515373077774D+04
     .331200000000D+06  .521540641785D-07  .156971089425D+00  .186264514923D-08
     .962053901064D+00  .225500000000D+03  .187615805223D+01 -.809748014969D-08
     .558951854017D-09  .100000000000D+01  .161200000000D+04  .000000000000D+00
     .240000000000D+01  .000000000000D+00  .465661287308D-08  .720000000000D+02
     .324006000000D+06  .400000000000D+01
26 10 12  1 20  0  0.0 -.628721900284D-04 -.841282599140D-11  .000000000000D+00
     .122000000000D+03 -.572500000000D+02  .406409785742D-08 -.155424386223D+01
    -.277720391750D-05  .199414672097D-01  .376068055630D-05  .515363776207D+04
     .331200000000D+06  .389292836189D-06 -.185156864490D+01  .186264514923D-06
     .988839705806D+00  .317437500000D+03  .111678290322D+01 -.794890253227D-08
    -.307512809143D-09  .100000000000D+01  .161200000000D+04  .000000000000D+00
     .240000000000D+01  .000000000000D+00 -.605359673500D-08  .122000000000D+03
     .324006000000D+06  .400000000000D+01
27 10 12  1 20  0  0.0  .212975312024D-03  .352429196937D-11  .000000000000D+00
     .850000000000D+02 -.730937500000D+02  .381658754762D-08 -.428766945121D+00
    -.380165874958D-05  .217532283859D-01  .112894922495D-04  .515376189613D+04
     .331200000000D+06 -.428408384323D-06 -.924491214781D+00  .800937414169D-07
     .979926608231D+00  .178062500000D+03 -.134172151625D+01 -.804854954011D-08
     .989326923723D-10  .100000000000D+01  .161200000000D+04  .000000000000D+00
     .240000000000D+01  .000000000000D+00 -.419095158577D-08  .850000000000D+02
     .324006000000D+06  .400000000000D+01
28 10 12  1 20  0  0.0  .732811167836D-05  .181898940355D-11  .000000000000D+00
     .450000000000D+02  .184687500000D+02  .443089885044D-08  .597238675788D+00
     .102259218693D-05  .165285710245D-01  .819005072117D-05  .515368265343D+04
     .331200000000D+06 -.251457095146D-06  .209828497913D+00  .521540641785D-07
     .972674191853D+00  .231281250000D+03 -.193569571082D+01 -.825891544555D-08
     .387158983869D-09  .100000000000D+01  .161200000000D+04  .000000000000D+00
     .240000000000D+01  .000000000000D+00 -.107102096081D-07  .450000000000D+02
     .324006000000D+06  .400000000000D+01
29 10 12  1 20  0  0.0  .167548656464D-03  .272848410532D-11  .000000000000D+00
     .690000000000D+02 -.291250000000D+02  .486270255108D-08  .267777846886D+01
    -.173598527908D-05  .250221579336D-02  .691041350365D-05  .515361343384D+04
     .331200000000D+06  .689178705215D-07  .125350539387D+01  .353902578354D-07
     .960654213230D+00  .247093750000D+03 -.125197591302D+01 -.812390982202D-08
    -.270011247052D-09  .100000000000D+01  .161200000000D+04  .000000000000D+00
     .240000000000D+01  .000000000000D+00 -.838190317154D-08  .690000000000D+02
     .324006000000D+06  .400000000000D+01
30 10 12  1 20  0  0.0  .301185529679D-03  .329691829393D-11  .000000000000D+00
     .460000000000D+02  .837500000000D+01  .469126683867D-08  .205900605295D+00
     .400468707085D-06  .130474671023D-01  .846385955811D-05  .515534365654D+04
     .331200000000D+06 -.176951289177D-06  .128320498618D+00 -.707805156708D-07
     .958709328012D+00  .217375000000D+03  .155613508908D+01 -.830498879326D-08
     .529664919813D-09  .100000000000D+01  .161200000000D+04  .000000000000D+00
     .240000000000D+01  .000000000000D+00 -.791624188423D-08  .460000000000D+02
     .324006000000D+06  .400000000000D+01
31 10 12  1 20  0  0.0  .143302604556D-04  .386535248253D-11  .000000000000D+00
     .340000000000D+02 -.960625000000D+02  .374515600078D-08 -.295256453496D+01
    -.481680035591D-05  .773916044272D-02  .110510736704D-04  .515355310249D+04
     .331200000000D+06  .670552253723D-07 -.868772062038D+00  .614672899246D-07
     .978538212661D+00  .176968750000D+03 -.104215102120D+01 -.757245828043D-08
    -.357157734196D-12  .100000000000D+01  .161200000000D+04  .000000000000D+00
     .240000000000D+01  .000000000000D+00 -.130385160446D-07  .340000000000D+02
     .324006000000D+06  .400000000000D+01
32 10 12  1 20  0  0.0 -.143903773278D-03 -.829913915368D-11  .000000000000D+00
     .103000000000D+03  .114781250000D+03  .466912305915D-08 -.211360956535D+01
     .607967376709D-05  .125722042285D-01  .554695725441D-05  .515356974030D+04
     .331200000000D+06 -.242143869400D-06 -.288375887488D+01  .271946191788D-06
     .957289975633D+00  .271281250000D+03 -.877802609991D+00 -.822998566908D-08
     .179293182566D-09  .100000000000D+01  .161200000000D+04  .000000000000D+00
     .240000000000D+01  .000000000000D+00 -.372529029846D-08  .103000000000D+03
     .324006000000D+06  .400000000000D+01
 1 10 12  1 22  0  0.0 -.187421683222D-03 -.352429196937D-11  .000000000000D+00
     .840000000000D+02  .119687500000D+02  .451161649836D-08  .135919873814D+01
     .620260834694D-06  .439175986685D-02  .825151801109D-05  .515352770615D+04
     .338400000000D+06 -.260770320892D-07  .169094173051D+00 -.931322574615D-08
     .967201330469D+00  .225218750000D+03  .935997447296D+00 -.804962101331D-08
     .506806824824D-09  .100000000000D+01  .161200000000D+04  .000000000000D+00
     .240000000000D+01  .630000000000D+02 -.190921127796D-07  .840000000000D+02
     .331206000000D+06  .400000000000D+01
 2 10 12  1 22  0  0.0  .305981375277D-03  .238742359215D-11  .000000000000D+00
     .770000000000D+02  .231875000000D+02  .496949271360D-08 -.173077557078D+00
     .127404928207D-05  .980797852390D-02  .107735395432D-04  .515367876434D+04
     .338400000000D+06  .149011611938D-06  .224988258759D+01  .204890966415D-07
     .939285456621D+00  .162062500000D+03 -.312521780923D+01 -.827248743945D-08
    -.260010830495D-09  .100000000000D+01  .161200000000D+04  .000000000000D+00
     .240000000000D+01  .000000000000D+00 -.172294676304D-07  .770000000000D+02
     .331206000000D+06  .400000000000D+01
 3 10 12  1 22  0  0.0  .642827246338D-03  .511590769747D-11  .000000000000D+00
     .440000000000D+02 -.218437500000D+02  .579274129093D-08 -.270773883071D+00
    -.103376805782D-05  .138607338304D-01  .561587512493D-05  .515361520195D+04
     .338400000000D+06 -.372529029846D-08  .109428701066D+01  .210478901863D-06
     .927618060273D+00  .256125000000D+03  .106241233273D+01 -.891715714967D-08
    -.832177520677D-10  .100000000000D+01  .161200000000D+04  .000000000000D+00
     .240000000000D+01  .000000000000D+00 -.465661287308D-08  .440000000000D+02
     .331206000000D+06  .400000000000D+01
